[{"OBJECT_NAME":"QIANFAN-52","OBJECT_ID":"2024-232S","EPOCH":"2026-03-04T20:47:04.947072","MEAN_MOTION":13.51000714,"ECCENTRICITY":0.0014168,"INCLINATION":89.0052,"RA_OF_ASC_NODE":32.8168,"ARG_OF_PERICENTER":322.1246,"MEAN_ANOMALY":37.8907,"EPHEMERIS_TYPE":0,"CLASSIFICATION_TYPE":"U","NORAD_CAT_ID":62253,"ELEMENT_SET_NO":999,"REV_AT_EPOCH":7903,"BSTAR":0.00010713,"MEAN_MOTION_DOT":8.1e-7,"MEAN_MOTION_DDOT":0},{"OBJECT_NAME":"QIANFAN-53","OBJECT_ID":"2024-232T","EPOCH":"2026-03-04T20:17:24.901440","MEAN_MOTION":13.51003417,"ECCENTRICITY":0.0013098,"INCLINATION":89.0059,"RA_OF_ASC_NODE":32.9295,"ARG_OF_PERICENTER":323.9818,"MEAN_ANOMALY":36.045,"EPHEMERIS_TYPE":0,"CLASSIFICATION_TYPE":"U","NORAD_CAT_ID":62254,"ELEMENT_SET_NO":999,"REV_AT_EPOCH":7899,"BSTAR":7.9323e-5,"MEAN_MOTION_DOT":6.3e-7,"MEAN_MOTION_DDOT":0},{"OBJECT_NAME":"QIANFAN-54","OBJECT_ID":"2024-232U","EPOCH":"2026-03-04T19:30:03.710880","MEAN_MOTION":13.51002806,"ECCENTRICITY":0.0003163,"INCLINATION":89.0051,"RA_OF_ASC_NODE":32.6041,"ARG_OF_PERICENTER":40.5802,"MEAN_ANOMALY":319.5584,"EPHEMERIS_TYPE":0,"CLASSIFICATION_TYPE":"U","NORAD_CAT_ID":62255,"ELEMENT_SET_NO":999,"REV_AT_EPOCH":11049,"BSTAR":8.4327e-5,"MEAN_MOTION_DOT":6.6e-7,"MEAN_MOTION_DDOT":0},{"OBJECT_NAME":"QIANFAN-55","OBJECT_ID":"2025-016A","EPOCH":"2026-03-04T20:07:34.202784","MEAN_MOTION":13.50996225,"ECCENTRICITY":0.0019412,"INCLINATION":88.9693,"RA_OF_ASC_NODE":94.7164,"ARG_OF_PERICENTER":109.7944,"MEAN_ANOMALY":250.5302,"EPHEMERIS_TYPE":0,"CLASSIFICATION_TYPE":"U","NORAD_CAT_ID":62785,"ELEMENT_SET_NO":999,"REV_AT_EPOCH":5827,"BSTAR":5.7799e-5,"MEAN_MOTION_DOT":5.0e-7,"MEAN_MOTION_DDOT":0},{"OBJECT_NAME":"QIANFAN-56","OBJECT_ID":"2025-016B","EPOCH":"2026-03-04T18:44:29.738400","MEAN_MOTION":13.50998161,"ECCENTRICITY":0.0018042,"INCLINATION":88.9666,"RA_OF_ASC_NODE":94.5367,"ARG_OF_PERICENTER":111.947,"MEAN_ANOMALY":248.3601,"EPHEMERIS_TYPE":0,"CLASSIFICATION_TYPE":"U","NORAD_CAT_ID":62786,"ELEMENT_SET_NO":999,"REV_AT_EPOCH":5831,"BSTAR":7.9822e-5,"MEAN_MOTION_DOT":6.4e-7,"MEAN_MOTION_DDOT":0},{"OBJECT_NAME":"QIANFAN-57","OBJECT_ID":"2025-016C","EPOCH":"2026-03-04T19:31:58.914912","MEAN_MOTION":13.50997062,"ECCENTRICITY":0.0001363,"INCLINATION":88.9697,"RA_OF_ASC_NODE":94.7122,"ARG_OF_PERICENTER":98.3032,"MEAN_ANOMALY":261.8273,"EPHEMERIS_TYPE":0,"CLASSIFICATION_TYPE":"U","NORAD_CAT_ID":62787,"ELEMENT_SET_NO":999,"REV_AT_EPOCH":5828,"BSTAR":8.5628e-5,"MEAN_MOTION_DOT":6.7e-7,"MEAN_MOTION_DDOT":0},{"OBJECT_NAME":"QIANFAN-58","OBJECT_ID":"2025-016D","EPOCH":"2026-03-04T18:50:24.998784","MEAN_MOTION":13.50998647,"ECCENTRICITY":0.0016008,"INCLINATION":88.9667,"RA_OF_ASC_NODE":94.5215,"ARG_OF_PERICENTER":105.0555,"MEAN_ANOMALY":255.2369,"EPHEMERIS_TYPE":0,"CLASSIFICATION_TYPE":"U","NORAD_CAT_ID":62788,"ELEMENT_SET_NO":999,"REV_AT_EPOCH":5832,"BSTAR":7.5885e-5,"MEAN_MOTION_DOT":6.1e-7,"MEAN_MOTION_DDOT":0},{"OBJECT_NAME":"QIANFAN-59","OBJECT_ID":"2025-016E","EPOCH":"2026-03-04T19:26:10.963104","MEAN_MOTION":13.50994542,"ECCENTRICITY":0.0016344,"INCLINATION":88.969,"RA_OF_ASC_NODE":94.6122,"ARG_OF_PERICENTER":108.3004,"MEAN_ANOMALY":251.9927,"EPHEMERIS_TYPE":0,"CLASSIFICATION_TYPE":"U","NORAD_CAT_ID":62789,"ELEMENT_SET_NO":999,"REV_AT_EPOCH":5832,"BSTAR":8.0029e-5,"MEAN_MOTION_DOT":6.4e-7,"MEAN_MOTION_DDOT":0},{"OBJECT_NAME":"QIANFAN-60","OBJECT_ID":"2025-016F","EPOCH":"2026-03-04T20:13:35.931072","MEAN_MOTION":13.50992528,"ECCENTRICITY":0.0017923,"INCLINATION":88.9671,"RA_OF_ASC_NODE":94.5645,"ARG_OF_PERICENTER":105.2942,"MEAN_ANOMALY":255.0192,"EPHEMERIS_TYPE":0,"CLASSIFICATION_TYPE":"U","NORAD_CAT_ID":62790,"ELEMENT_SET_NO":999,"REV_AT_EPOCH":5831,"BSTAR":7.3616e-5,"MEAN_MOTION_DOT":6.0e-7,"MEAN_MOTION_DDOT":0},{"OBJECT_NAME":"QIANFAN-61","OBJECT_ID":"2025-016G","EPOCH":"2026-03-04T19:14:21.166368","MEAN_MOTION":13.50993833,"ECCENTRICITY":0.0016845,"INCLINATION":88.9739,"RA_OF_ASC_NODE":94.7876,"ARG_OF_PERICENTER":104.7308,"MEAN_ANOMALY":255.5711,"EPHEMERIS_TYPE":0,"CLASSIFICATION_TYPE":"U","NORAD_CAT_ID":62791,"ELEMENT_SET_NO":999,"REV_AT_EPOCH":5832,"BSTAR":6.2941e-5,"MEAN_MOTION_DOT":5.3e-7,"MEAN_MOTION_DDOT":0},{"OBJECT_NAME":"QIANFAN-62","OBJECT_ID":"2025-016H","EPOCH":"2026-03-04T19:20:10.777056","MEAN_MOTION":13.50996537,"ECCENTRICITY":0.0018221,"INCLINATION":88.9685,"RA_OF_ASC_NODE":94.6112,"ARG_OF_PERICENTER":105.1125,"MEAN_ANOMALY":255.2044,"EPHEMERIS_TYPE":0,"CLASSIFICATION_TYPE":"U","NORAD_CAT_ID":62792,"ELEMENT_SET_NO":999,"REV_AT_EPOCH":5831,"BSTAR":6.7961e-5,"MEAN_MOTION_DOT":5.6e-7,"MEAN_MOTION_DDOT":0},{"OBJECT_NAME":"QIANFAN-63","OBJECT_ID":"2025-016J","EPOCH":"2026-03-04T19:55:46.668000","MEAN_MOTION":13.50995173,"ECCENTRICITY":0.0018262,"INCLINATION":88.9692,"RA_OF_ASC_NODE":94.5657,"ARG_OF_PERICENTER":109.8315,"MEAN_ANOMALY":250.4807,"EPHEMERIS_TYPE":0,"CLASSIFICATION_TYPE":"U","NORAD_CAT_ID":62793,"ELEMENT_SET_NO":999,"REV_AT_EPOCH":5835,"BSTAR":6.8891e-5,"MEAN_MOTION_DOT":5.7e-7,"MEAN_MOTION_DDOT":0},{"OBJECT_NAME":"QIANFAN-64","OBJECT_ID":"2025-016K","EPOCH":"2026-03-04T19:08:25.215648","MEAN_MOTION":13.51005396,"ECCENTRICITY":0.0016212,"INCLINATION":88.9679,"RA_OF_ASC_NODE":94.5323,"ARG_OF_PERICENTER":103.4533,"MEAN_ANOMALY":256.8426,"EPHEMERIS_TYPE":0,"CLASSIFICATION_TYPE":"U","NORAD_CAT_ID":62794,"ELEMENT_SET_NO":999,"REV_AT_EPOCH":5834,"BSTAR":5.3956e-5,"MEAN_MOTION_DOT":4.7e-7,"MEAN_MOTION_DDOT":0},{"OBJECT_NAME":"QIANFAN-65","OBJECT_ID":"2025-016L","EPOCH":"2026-03-04T19:02:21.805152","MEAN_MOTION":13.51008767,"ECCENTRICITY":0.0016075,"INCLINATION":88.9675,"RA_OF_ASC_NODE":94.5557,"ARG_OF_PERICENTER":105.0308,"MEAN_ANOMALY":255.2624,"EPHEMERIS_TYPE":0,"CLASSIFICATION_TYPE":"U","NORAD_CAT_ID":62795,"ELEMENT_SET_NO":999,"REV_AT_EPOCH":5832,"BSTAR":7.7897e-5,"MEAN_MOTION_DOT":6.3e-7,"MEAN_MOTION_DDOT":0},{"OBJECT_NAME":"QIANFAN-66","OBJECT_ID":"2025-016M","EPOCH":"2026-03-04T19:43:50.077632","MEAN_MOTION":13.50996872,"ECCENTRICITY":0.0017193,"INCLINATION":88.9694,"RA_OF_ASC_NODE":94.5389,"ARG_OF_PERICENTER":101.238,"MEAN_ANOMALY":259.0704,"EPHEMERIS_TYPE":0,"CLASSIFICATION_TYPE":"U","NORAD_CAT_ID":62796,"ELEMENT_SET_NO":999,"REV_AT_EPOCH":5837,"BSTAR":7.0852e-5,"MEAN_MOTION_DOT":5.8e-7,"MEAN_MOTION_DDOT":0},{"OBJECT_NAME":"QIANFAN-67","OBJECT_ID":"2025-016N","EPOCH":"2026-03-04T19:49:40.789920","MEAN_MOTION":13.50995262,"ECCENTRICITY":0.0017136,"INCLINATION":88.9685,"RA_OF_ASC_NODE":94.556,"ARG_OF_PERICENTER":107.2662,"MEAN_ANOMALY":253.0366,"EPHEMERIS_TYPE":0,"CLASSIFICATION_TYPE":"U","NORAD_CAT_ID":62797,"ELEMENT_SET_NO":999,"REV_AT_EPOCH":5834,"BSTAR":7.8129e-5,"MEAN_MOTION_DOT":6.3e-7,"MEAN_MOTION_DDOT":0},{"OBJECT_NAME":"QIANFAN-68","OBJECT_ID":"2025-016P","EPOCH":"2026-03-04T19:38:02.428224","MEAN_MOTION":13.5100522,"ECCENTRICITY":0.0017202,"INCLINATION":88.9688,"RA_OF_ASC_NODE":94.605,"ARG_OF_PERICENTER":105.7525,"MEAN_ANOMALY":254.5524,"EPHEMERIS_TYPE":0,"CLASSIFICATION_TYPE":"U","NORAD_CAT_ID":62798,"ELEMENT_SET_NO":999,"REV_AT_EPOCH":5832,"BSTAR":8.4458e-5,"MEAN_MOTION_DOT":6.7e-7,"MEAN_MOTION_DDOT":0}]
