QIANFAN-52              
1 62253U 24232S   26063.86602948  .00000081  00000+0  10713-3 0  9994
2 62253  89.0052  32.8168 0014168 322.1246  37.8907 13.51000714 79037
QIANFAN-53              
1 62254U 24232T   26063.84542710  .00000063  00000+0  79323-4 0  9996
2 62254  89.0059  32.9295 0013098 323.9818  36.0450 13.51003417 78993
QIANFAN-54              
1 62255U 24232U   26063.81254295  .00000066  00000+0  84327-4 0  9995
2 62255  89.0051  32.6041 0003163  40.5802 319.5584 13.51002806110499
QIANFAN-55              
1 62785U 25016A   26063.83859031  .00000050  00000+0  57799-4 0  9991
2 62785  88.9693  94.7164 0019412 109.7944 250.5302 13.50996225 58276
QIANFAN-56              
1 62786U 25016B   26063.78089975  .00000064  00000+0  79822-4 0  9994
2 62786  88.9666  94.5367 0018042 111.9470 248.3601 13.50998161 58310
QIANFAN-57              
1 62787U 25016C   26063.81387633  .00000067  00000+0  85628-4 0  9995
2 62787  88.9697  94.7122 0001363  98.3032 261.8273 13.50997062 58286
QIANFAN-58              
1 62788U 25016D   26063.78501156  .00000061  00000+0  75885-4 0  9998
2 62788  88.9667  94.5215 0016008 105.0555 255.2369 13.50998647 58321
QIANFAN-59              
1 62789U 25016E   26063.80984911  .00000064  00000+0  80029-4 0  9995
2 62789  88.9690  94.6122 0016344 108.3004 251.9927 13.50994542 58327
QIANFAN-60              
1 62790U 25016F   26063.84277698  .00000060  00000+0  73616-4 0  9998
2 62790  88.9671  94.5645 0017923 105.2942 255.0192 13.50992528 58318
QIANFAN-61              
1 62791U 25016G   26063.80163387  .00000053  00000+0  62941-4 0  9995
2 62791  88.9739  94.7876 0016845 104.7308 255.5711 13.50993833 58327
QIANFAN-62              
1 62792U 25016H   26063.80568029  .00000056  00000+0  67961-4 0  9998
2 62792  88.9685  94.6112 0018221 105.1125 255.2044 13.50996537 58311
QIANFAN-63              
1 62793U 25016J   26063.83040125  .00000057  00000+0  68891-4 0  9998
2 62793  88.9692  94.5657 0018262 109.8315 250.4807 13.50995173 58353
QIANFAN-64              
1 62794U 25016K   26063.79751407  .00000047  00000+0  53956-4 0  9991
2 62794  88.9679  94.5323 0016212 103.4533 256.8426 13.51005396 58340
QIANFAN-65              
1 62795U 25016L   26063.79330793  .00000063  00000+0  77897-4 0  9991
2 62795  88.9675  94.5557 0016075 105.0308 255.2624 13.51008767 58327
QIANFAN-66              
1 62796U 25016M   26063.82210738  .00000058  00000+0  70852-4 0  9990
2 62796  88.9694  94.5389 0017193 101.2380 259.0704 13.50996872 58370
QIANFAN-67              
1 62797U 25016N   26063.82616655  .00000063  00000+0  78129-4 0  9990
2 62797  88.9685  94.5560 0017136 107.2662 253.0366 13.50995262 58345
QIANFAN-68              
1 62798U 25016P   26063.81808366  .00000067  00000+0  84458-4 0  9998
2 62798  88.9688  94.6050 0017202 105.7525 254.5524 13.51005220 58326
